[
    {
        "Altitude(m)": 559576.7152342001,
        "Argument of Periapsis(deg)": 0.019868973332140504,
        "Eccentricity": 0.0,
        "Inclination(deg)": 53.0,
        "Latitude(deg)": 51.72416789632511,
        "Longitude(deg)": 35.85741606903058,
        "Mean Anomaly(deg)": 101.18387860273275,
        "RAAN(deg)": 29.97043010558405,
        "Satellite Name": "Starlink Shell 1 136",
        "Satellite Number": 136,
        "Semi-Major Axis(m)": 6931778.249405717,
        "Time(s)": 570
    },
    {
        "Altitude(m)": 559540.0639934418,
        "Argument of Periapsis(deg)": 0.02021755181165174,
        "Eccentricity": 0.0,
        "Inclination(deg)": 53.0,
        "Latitude(deg)": 51.56338253407016,
        "Longitude(deg)": 36.789864907122926,
        "Mean Anomaly(deg)": 101.81070980628948,
        "RAAN(deg)": 29.96991133550658,
        "Satellite Name": "Starlink Shell 1 136",
        "Satellite Number": 136,
        "Semi-Major Axis(m)": 6931778.249405717,
        "Time(s)": 580
    },
    {
        "Altitude(m)": 559501.5611578946,
        "Argument of Periapsis(deg)": 0.020566130291162974,
        "Eccentricity": 0.0,
        "Inclination(deg)": 53.0,
        "Latitude(deg)": 51.394574647447335,
        "Longitude(deg)": 37.715305432338376,
        "Mean Anomaly(deg)": 102.4375410098462,
        "RAAN(deg)": 29.9693925654291,
        "Satellite Name": "Starlink Shell 1 136",
        "Satellite Number": 136,
        "Semi-Major Axis(m)": 6931778.249405717,
        "Time(s)": 590
    },
    {
        "Altitude(m)": 559461.2300217334,
        "Argument of Periapsis(deg)": 0.020914708770674213,
        "Eccentricity": 0.0,
        "Inclination(deg)": 53.0,
        "Latitude(deg)": 51.2178502690176,
        "Longitude(deg)": 38.633496668112244,
        "Mean Anomaly(deg)": 103.06437221340289,
        "RAAN(deg)": 29.968873795351627,
        "Satellite Name": "Starlink Shell 1 136",
        "Satellite Number": 136,
        "Semi-Major Axis(m)": 6931778.249405717,
        "Time(s)": 600
    },
    {
        "Altitude(m)": 559419.0950024548,
        "Argument of Periapsis(deg)": 0.021263287250185448,
        "Eccentricity": 0.0,
        "Inclination(deg)": 53.0,
        "Latitude(deg)": 51.03331845293691,
        "Longitude(deg)": 39.544214063639664,
        "Mean Anomaly(deg)": 103.69120341695962,
        "RAAN(deg)": 29.968355025274157,
        "Satellite Name": "Starlink Shell 1 136",
        "Satellite Number": 136,
        "Semi-Major Axis(m)": 6931778.249405717,
        "Time(s)": 610
    },
    {
        "Altitude(m)": 559375.1816288952,
        "Argument of Periapsis(deg)": 0.021611865729696686,
        "Eccentricity": 0.0,
        "Inclination(deg)": 53.0,
        "Latitude(deg)": 50.841090989575505,
        "Longitude(deg)": 40.44725002050211,
        "Mean Anomaly(deg)": 104.31803462051634,
        "RAAN(deg)": 29.967836255196683,
        "Satellite Name": "Starlink Shell 1 136",
        "Satellite Number": 136,
        "Semi-Major Axis(m)": 6931778.249405717,
        "Time(s)": 620
    },
    {
        "Altitude(m)": 559329.5165287448,
        "Argument of Periapsis(deg)": 0.02196044420920792,
        "Eccentricity": 0.0,
        "Inclination(deg)": 53.0,
        "Latitude(deg)": 50.64128212302594,
        "Longitude(deg)": 41.34241266565979,
        "Mean Anomaly(deg)": 104.94486582407306,
        "RAAN(deg)": 29.96731748511921,
        "Satellite Name": "Starlink Shell 1 136",
        "Satellite Number": 136,
        "Semi-Major Axis(m)": 6931778.249405717,
        "Time(s)": 630
    },
    {
        "Altitude(m)": 559282.1274154838,
        "Argument of Periapsis(deg)": 0.02230902268871916,
        "Eccentricity": 0.0,
        "Inclination(deg)": 53.0,
        "Latitude(deg)": 50.43400827283094,
        "Longitude(deg)": 42.22952707759995,
        "Mean Anomaly(deg)": 105.57169702762974,
        "RAAN(deg)": 29.96679871504174,
        "Satellite Name": "Starlink Shell 1 136",
        "Satellite Number": 136,
        "Semi-Major Axis(m)": 6931778.249405717,
        "Time(s)": 640
    },
    {
        "Altitude(m)": 559233.0430747991,
        "Argument of Periapsis(deg)": 0.022657601168230398,
        "Eccentricity": 0.0,
        "Inclination(deg)": 53.0,
        "Latitude(deg)": 50.21938776113434,
        "Longitude(deg)": 43.108433927409955,
        "Mean Anomaly(deg)": 106.19852823118647,
        "RAAN(deg)": 29.966279944964267,
        "Satellite Name": "Starlink Shell 1 136",
        "Satellite Number": 136,
        "Semi-Major Axis(m)": 6931778.249405717,
        "Time(s)": 650
    },
    {
        "Altitude(m)": 559182.2933504529,
        "Argument of Periapsis(deg)": 0.023006179647741636,
        "Eccentricity": 0.0,
        "Inclination(deg)": 53.0,
        "Latitude(deg)": 49.9975405463572,
        "Longitude(deg)": 43.97898974214404,
        "Mean Anomaly(deg)": 106.8253594347432,
        "RAAN(deg)": 29.965761174886794,
        "Satellite Name": "Starlink Shell 1 136",
        "Satellite Number": 136,
        "Semi-Major Axis(m)": 6931778.249405717,
        "Time(s)": 660
    },
    {
        "Altitude(m)": 559129.909129633,
        "Argument of Periapsis(deg)": 0.023354758127252868,
        "Eccentricity": 0.0,
        "Inclination(deg)": 53.0,
        "Latitude(deg)": 49.76858796437242,
        "Longitude(deg)": 44.841067114616024,
        "Mean Anomaly(deg)": 107.45219063829992,
        "RAAN(deg)": 29.96524240480932,
        "Satellite Name": "Starlink Shell 1 136",
        "Satellite Number": 136,
        "Semi-Major Axis(m)": 6931778.249405717,
        "Time(s)": 670
    },
    {
        "Altitude(m)": 559075.9223277725,
        "Argument of Periapsis(deg)": 0.023703336606764106,
        "Eccentricity": 0.0,
        "Inclination(deg)": 53.0,
        "Latitude(deg)": 49.532652478032496,
        "Longitude(deg)": 45.694553351946524,
        "Mean Anomaly(deg)": 108.07902184185664,
        "RAAN(deg)": 29.964723634731847,
        "Satellite Name": "Starlink Shell 1 136",
        "Satellite Number": 136,
        "Semi-Major Axis(m)": 6931778.249405717,
        "Time(s)": 680
    },
    {
        "Altitude(m)": 559020.3658728648,
        "Argument of Periapsis(deg)": 0.024051915086275345,
        "Eccentricity": 0.0,
        "Inclination(deg)": 53.0,
        "Latitude(deg)": 49.28985743579218,
        "Longitude(deg)": 46.539350593851175,
        "Mean Anomaly(deg)": 108.70585304541332,
        "RAAN(deg)": 29.964204864654377,
        "Satellite Name": "Starlink Shell 1 136",
        "Satellite Number": 136,
        "Semi-Major Axis(m)": 6931778.249405717,
        "Time(s)": 690
    },
    {
        "Altitude(m)": 558963.2736892609,
        "Argument of Periapsis(deg)": 0.024400493565786583,
        "Eccentricity": 0.0,
        "Inclination(deg)": 53.0,
        "Latitude(deg)": 49.04032684004537,
        "Longitude(deg)": 47.375375892995194,
        "Mean Anomaly(deg)": 109.33268424897004,
        "RAAN(deg)": 29.963686094576897,
        "Satellite Name": "Starlink Shell 1 136",
        "Satellite Number": 136,
        "Semi-Major Axis(m)": 6931778.249405717,
        "Time(s)": 700
    },
    {
        "Altitude(m)": 558904.680680964,
        "Argument of Periapsis(deg)": 0.024749072045297815,
        "Eccentricity": 0.0,
        "Inclination(deg)": 53.0,
        "Latitude(deg)": 48.78418512568277,
        "Longitude(deg)": 48.202559749656835,
        "Mean Anomaly(deg)": 109.9595154525268,
        "RAAN(deg)": 29.963167324499427,
        "Satellite Name": "Starlink Shell 1 136",
        "Satellite Number": 136,
        "Semi-Major Axis(m)": 6931778.249405717,
        "Time(s)": 710
    },
    {
        "Altitude(m)": 558844.6227144254,
        "Argument of Periapsis(deg)": 0.025097650524809053,
        "Eccentricity": 0.0,
        "Inclination(deg)": 53.0,
        "Latitude(deg)": 48.52155694927419,
        "Longitude(deg)": 49.02084613142984,
        "Mean Anomaly(deg)": 110.58634665608349,
        "RAAN(deg)": 29.962648554421957,
        "Satellite Name": "Starlink Shell 1 136",
        "Satellite Number": 136,
        "Semi-Major Axis(m)": 6931778.249405717,
        "Time(s)": 720
    },
    {
        "Altitude(m)": 558783.1366008787,
        "Argument of Periapsis(deg)": 0.02544622900432029,
        "Eccentricity": 0.0,
        "Inclination(deg)": 53.0,
        "Latitude(deg)": 48.252566989171505,
        "Longitude(deg)": 49.83019246989491,
        "Mean Anomaly(deg)": 111.2131778596402,
        "RAAN(deg)": 29.96212978434448,
        "Satellite Name": "Starlink Shell 1 136",
        "Satellite Number": 136,
        "Semi-Major Axis(m)": 6931778.249405717,
        "Time(s)": 730
    },
    {
        "Altitude(m)": 558720.260078162,
        "Argument of Periapsis(deg)": 0.02579480748383153,
        "Eccentricity": 0.0,
        "Inclination(deg)": 53.0,
        "Latitude(deg)": 47.9773397567311,
        "Longitude(deg)": 50.63056812597369,
        "Mean Anomaly(deg)": 111.8400090631969,
        "RAAN(deg)": 29.96161101426701,
        "Satellite Name": "Starlink Shell 1 136",
        "Satellite Number": 136,
        "Semi-Major Axis(m)": 6931778.249405717,
        "Time(s)": 740
    },
    {
        "Altitude(m)": 558656.0317920669,
        "Argument of Periapsis(deg)": 0.026143385963342765,
        "Eccentricity": 0.0,
        "Inclination(deg)": 53.0,
        "Latitude(deg)": 47.69599941877157,
        "Longitude(deg)": 51.4219543540683,
        "Mean Anomaly(deg)": 112.46684026675361,
        "RAAN(deg)": 29.96109224418954,
        "Satellite Name": "Starlink Shell 1 136",
        "Satellite Number": 136,
        "Semi-Major Axis(m)": 6931778.249405717,
        "Time(s)": 750
    }
]